LEMUR-2-KADI            
1 43184U 18014E   26136.97330814  .00372644  00000+0  13795-2 0  9999
2 43184  97.4476  66.5362 0005074 109.7194 250.4625 15.87210034456127
S-NET D                 
1 43186U 18014G   26136.98812068  .00003302  00000+0  17355-3 0  9997
2 43186  97.5391  41.9777 0009806 120.4207 239.7995 15.16354078454032
S-NET B                 
1 43187U 18014H   26137.19693889  .00003294  00000+0  17324-3 0  9996
2 43187  97.5394  42.1708 0010538 116.1876 244.0442 15.16325142454060
S-NET A                 
1 43188U 18014J   26136.98715596  .00003344  00000+0  17564-3 0  9995
2 43188  97.5407  42.1654 0010377 117.3049 242.9242 15.16361211454031
S-NET C                 
1 43189U 18014K   26136.87069325  .00003654  00000+0  19177-3 0  9992
2 43189  97.5423  42.1194 0011878 112.0611 248.1885 15.16314976452566
PAZ                     
1 43215U 18020A   26136.62195787  .00001151  00000+0  57963-4 0  9990
2 43215  97.4457 144.4562 0001723  87.6311 272.5121 15.19158357456211
GOES 17                 
1 43226U 18022A   26137.18169822 -.00000174  00000+0  00000+0 0  9997
2 43226   0.8596  86.1231 0000442 322.4418 162.2462  1.00270478 30119
LKW-4                   
1 43236U 18025A   26136.92423734  .00031801  00000+0  39775-3 0  9992
2 43236  97.6326 305.4155 0002980  75.0451 285.1135 15.59761024455152
ZHUHAI-1 OVS-02         
1 43440U 18040B   26137.19090634  .00005521  00000+0  22668-3 0  9998
2 43440  97.0402 156.2666 0004372  39.2108 320.9447 15.24579621447994
ZHUHAI-1 OHS-02         
1 43441U 18040C   26137.19297780  .00005918  00000+0  23677-3 0  9991
2 43441  97.0388 163.1773 0008706 354.3258   5.7881 15.25396795109553
GAOFEN-6                
1 43484U 18048A   26137.17064911  .00000332  00000+0  54590-4 0  9996
2 43484  97.7779 200.9881 0010508 276.8462  83.1553 14.76592046428810
LUOJIA-1 01             
1 43485U 18048B   26137.15773557  .00001134  00000+0  13218-3 0  9990
2 43485  97.8108 215.8456 0008127 216.0024 144.0645 14.87156155429601
PAKTES 1A               
1 43529U 18056A   26137.16537432  .00001436  00000+0  12370-3 0  9992
2 43529  98.1219 292.3385 0021535 210.2151 149.7830 14.98913503427272
PRSS-1                  
1 43530U 18056B   26137.19844626  .00000251  00000+0  38108-4 0  9995
2 43530  97.7836 205.9249 0001818  91.4638 268.6784 14.81934208423849
HAIYANG-1C              
1 43609U 18068A   26137.19886264  .00000136  00000+0  64033-4 0  9997
2 43609  98.5204 209.9527 0010836 180.0773 180.0412 14.34168841402642
SSTL S1-4               
1 43618U 18071A   26137.19045014  .00000809  00000+0  76622-4 0  9995
2 43618  97.5071  10.0876 0001187  75.9555 284.1799 14.96172905418308
HAIYANG-2B              
1 43655U 18081A   26137.18896983  .00000150  00000+0  18944-3 0  9996
2 43655  99.3290 146.4121 0001588  47.8967 312.2319 13.79306968380654
CFOSAT                  
1 43662U 18083A   26137.21158131  .00002290  00000+0  12093-3 0  9992
2 43662  97.3608 142.6546 0001652  62.3831 297.7570 15.16495221417747
TEN-KOH                 
1 43677U 18084G   26137.09696909  .00000879  00000+0  70645-4 0  9994
2 43677  98.0753 328.1545 0008695 217.7641 142.2973 15.02783274411491
DIWATA-2B               
1 43678U 18084H   26137.15838601  .00002018  00000+0  16612-3 0  9999
2 43678  98.1104 332.0348 0011789 278.0397  81.9488 15.00289526411561
STARS-AO                
1 43679U 18084J   26137.00313041  .00004840  00000+0  25103-3 0  9990
2 43679  98.0530 349.0567 0000619 271.6149  88.5011 15.16679978412746
AUTCUBE 2               
1 43681U 18084K   26137.08459542  .00002263  00000+0  14408-3 0  9991
2 43681  98.0732 341.6120 0009955 141.3004 218.8939 15.09859837412238
METOP-C                 
1 43689U 18087A   26137.16787954  .00000065  00000+0  49356-4 0  9991
2 43689  98.6660 197.3354 0000395 141.2790 218.8416 14.21502957390424
ES'HAIL 2               
1 43700U 18090A   26137.17595831  .00000152  00000+0  00000+0 0  9996
2 43700   0.0165 302.4846 0001182 139.1896 242.3696  1.00268653 27365
MOHAMMED VI-B           
1 43717U 18095A   26137.15125691  .00000291  00000+0  48447-4 0  9996
2 43717  97.9569 209.9017 0001260  80.1128 280.0224 14.77072622403605
HYSIS                   
1 43719U 18096A   26137.15092767  .00001066  00000+0  15271-3 0  9995
2 43719  97.9857 204.1391 0000930 111.0199 249.1111 14.78625508402837
COSMOS 2530 (RODNIK-S *)
1 43751U 18097A   26137.22423088  .00000069  00000+0  42595-3 0  9995
2 43751  82.5154 241.4938 0020784 104.0169 256.3223 12.42880638338447
COSMOS 2531 (RODNIK-S *)
1 43752U 18097B   26137.16677747  .00000101  00000+0  65754-3 0  9991
2 43752  82.5199 242.5775 0017928 121.9346 238.3480 12.42912337338457
COSMOS 2532 (RODNIK-S *)
1 43753U 18097C   26137.19497392  .00000149  00000+0  99939-3 0  9995
2 43753  82.5145 241.3601 0019278 123.9617 236.3298 12.42909203338427
MINXSS-2                
1 43758U 18099A   26137.14888639  .00027244  00000+0  58282-3 0  9996
2 43758  97.4550 212.5753 0007066  29.5292 330.6354 15.44757821409339
