OBJECT_NAME,OBJECT_ID,EPOCH,MEAN_MOTION,ECCENTRICITY,INCLINATION,RA_OF_ASC_NODE,ARG_OF_PERICENTER,MEAN_ANOMALY,EPHEMERIS_TYPE,CLASSIFICATION_TYPE,NORAD_CAT_ID,ELEMENT_SET_NO,REV_AT_EPOCH,BSTAR,MEAN_MOTION_DOT,MEAN_MOTION_DDOT
LEMUR-2-KADI,2018-014E,2026-05-16T23:21:33.823296,15.87210034,.0005074,97.4476,66.5362,109.7194,250.4625,0,U,43184,999,45612,.13795E-2,.372644E-2,0
S-NET D,2018-014G,2026-05-16T23:42:53.626752,15.16354078,.0009806,97.5391,41.9777,120.4207,239.7995,0,U,43186,999,45403,.17355E-3,.3302E-4,0
S-NET B,2018-014H,2026-05-17T04:43:35.520096,15.16325142,.0010538,97.5394,42.1708,116.1876,244.0442,0,U,43187,999,45406,.17324E-3,.3294E-4,0
S-NET A,2018-014J,2026-05-16T23:41:30.274944,15.16361211,.0010377,97.5407,42.1654,117.3049,242.9242,0,U,43188,999,45403,.17564E-3,.3344E-4,0
S-NET C,2018-014K,2026-05-16T20:53:47.896800,15.16314976,.0011878,97.5423,42.1194,112.0611,248.1885,0,U,43189,999,45256,.19177E-3,.3654E-4,0
PAZ,2018-020A,2026-05-16T14:55:37.159968,15.19158357,.00017234,97.4457,144.4562,87.6311,272.5121,0,U,43215,999,45621,.57963354E-4,.1151E-4,0
GOES 17,2018-022A,2026-05-17T04:21:38.726208,1.00270478,.0000442,0.8596,86.1231,322.4418,162.2462,0,U,43226,999,3011,0,-.174E-5,0
LKW-4,2018-025A,2026-05-16T22:10:54.106176,15.59761024,.000298,97.6326,305.4155,75.0451,285.1135,0,U,43236,999,45515,.39775E-3,.31801E-3,0
ZHUHAI-1 OVS-02,2018-040B,2026-05-17T04:34:54.307776,15.24579621,.0004372,97.0402,156.2666,39.2108,320.9447,0,U,43440,999,44799,.22668E-3,.5521E-4,0
ZHUHAI-1 OHS-02,2018-040C,2026-05-17T04:37:53.281920,15.25396795,.0008706,97.0388,163.1773,354.3258,5.7881,0,U,43441,999,10955,.23677E-3,.5918E-4,0
GAOFEN-6,2018-048A,2026-05-17T04:05:44.083104,14.76592046,.0010508,97.7779,200.9881,276.8462,83.1553,0,U,43484,999,42881,.5459E-4,.332E-5,0
LUOJIA-1 01,2018-048B,2026-05-17T03:47:08.353248,14.87156155,.0008127,97.8108,215.8456,216.0024,144.0645,0,U,43485,999,42960,.13218E-3,.1134E-4,0
PAKTES 1A,2018-056A,2026-05-17T03:58:08.341248,14.98913503,.0021535,98.1219,292.3385,210.2151,149.7830,0,U,43529,999,42727,.1237E-3,.1436E-4,0
PRSS-1,2018-056B,2026-05-17T04:45:45.756864,14.81934208,.0001818,97.7836,205.9249,91.4638,268.6784,0,U,43530,999,42384,.38108E-4,.251E-5,0
HAIYANG-1C,2018-068A,2026-05-17T04:46:21.732096,14.34168841,.0010836,98.5204,209.9527,180.0773,180.0412,0,U,43609,999,40264,.64033E-4,.136E-5,0
SSTL S1-4,2018-071A,2026-05-17T04:34:14.892096,14.96172905,.0001187,97.5071,10.0876,75.9555,284.1799,0,U,43618,999,41830,.76622E-4,.809E-5,0
HAIYANG-2B,2018-081A,2026-05-17T04:32:06.993312,13.79306968,.0001588,99.3290,146.4121,47.8967,312.2319,0,U,43655,999,38065,.18944E-3,.15E-5,0
CFOSAT,2018-083A,2026-05-17T05:04:40.625184,15.16495221,.0001652,97.3608,142.6546,62.3831,297.7570,0,U,43662,999,41774,.12093E-3,.229E-4,0
TEN-KOH,2018-084G,2026-05-17T02:19:38.129376,15.02783274,.0008695,98.0753,328.1545,217.7641,142.2973,0,U,43677,999,41149,.70645E-4,.879E-5,0
DIWATA-2B,2018-084H,2026-05-17T03:48:04.551264,15.00289526,.0011789,98.1104,332.0348,278.0397,81.9488,0,U,43678,999,41156,.16612E-3,.2018E-4,0
STARS-AO,2018-084J,2026-05-17T00:04:30.467424,15.16679978,.0000619,98.0530,349.0567,271.6149,88.5011,0,U,43679,999,41274,.25103E-3,.484E-4,0
AUTCUBE 2,2018-084K,2026-05-17T02:01:49.044288,15.09859837,.0009955,98.0732,341.6120,141.3004,218.8939,0,U,43681,999,41223,.14408E-3,.2263E-4,0
METOP-C,2018-087A,2026-05-17T04:01:44.792256,14.21502957,.0000395,98.6660,197.3354,141.2790,218.8416,0,U,43689,999,39042,.49356E-4,.65E-6,0
ES'HAIL 2,2018-090A,2026-05-17T04:13:22.797984,1.00268653,.0001182,0.0165,302.4846,139.1896,242.3696,0,U,43700,999,2736,0,.152E-5,0
MOHAMMED VI-B,2018-095A,2026-05-17T03:37:48.597024,14.77072622,.000126,97.9569,209.9017,80.1128,280.0224,0,U,43717,999,40360,.48447E-4,.291E-5,0
HYSIS,2018-096A,2026-05-17T03:37:20.150688,14.78625508,.000093,97.9857,204.1391,111.0199,249.1111,0,U,43719,999,40283,.15271E-3,.1066E-4,0
COSMOS 2530 (RODNIK-S 16),2018-097A,2026-05-17T05:22:53.548032,12.42880638,.0020784,82.5154,241.4938,104.0169,256.3223,0,U,43751,999,33844,.42595E-3,.69E-6,0
COSMOS 2531 (RODNIK-S 17),2018-097B,2026-05-17T04:00:09.573408,12.42912337,.0017928,82.5199,242.5775,121.9346,238.3480,0,U,43752,999,33845,.65754E-3,.101E-5,0
COSMOS 2532 (RODNIK-S 18),2018-097C,2026-05-17T04:40:45.746688,12.42909203,.0019278,82.5145,241.3601,123.9617,236.3298,0,U,43753,999,33842,.99939E-3,.149E-5,0
MINXSS-2,2018-099A,2026-05-17T03:34:23.784096,15.44757821,.0007066,97.4550,212.5753,29.5292,330.6354,0,U,43758,999,40933,.58282E-3,.27244E-3,0
